NORAD_CAT_ID,OBJECT_NAME,OBJECT_TYPE,EPOCH,MEAN_MOTION,ECCENTRICITY,INCLINATION,RA_OF_ASC_NODE,ARG_OF_PERICENTER,MEAN_ANOMALY,BSTAR,MEAN_MOTION_DOT,MEAN_MOTION_DDOT,TLE_LINE0,TLE_LINE1,TLE_LINE2,SEMIMAJOR_AXIS,PERIOD,APOGEE,PERIGEE,DECAYED
55429.0,STARLINK-5645,PAYLOAD,2024-08-18 22:10:54,14.98342038,0.0003176,70.0004,76.1069,273.351,86.7286,0.00050772,5.972e-05,0.0,0 STARLINK-5645,1 55429U 23014AQ  24231.92424271  .00005972  00000-0  50772-3 0  9995,2 55429  70.0004  76.1069 0003176 273.3510  86.7286 14.98342038 86514,6950.156,96.106,574.228,569.813,0.0
55429.0,STARLINK-5645,PAYLOAD,2024-08-18 23:47:02,14.983432,0.0003179,70.0004,75.9386,273.3335,86.746,0.00051873,6.104e-05,0.0,0 STARLINK-5645,1 55429U 23014AQ  24231.99100203  .00006104  00000-0  51873-3 0  9999,2 55429  70.0004  75.9386 0003179 273.3335  86.7460 14.98343200 85583,6950.152,96.106,574.227,569.808,0.0
55429.0,STARLINK-5645,PAYLOAD,2024-08-19 12:36:07,14.98334171,0.0002889,70.001,74.5927,272.3141,87.7687,0.00014886,1.684e-05,0.0,0 STARLINK-5645,1 55429U 23014AQ  24232.52508381  .00001684  00000-0  14886-3 0  9999,2 55429  70.0010  74.5927 0002889 272.3141  87.7687 14.98334171 85665,6950.18,96.107,574.053,570.037,0.0
55429.0,STARLINK-5645,PAYLOAD,2024-08-20 14:14:16,14.98336498,0.000285,70.0005,71.8983,269.4522,90.631,0.00010565,1.168e-05,0.0,0 STARLINK-5645,1 55429U 23014AQ  24233.59324180  .00001168  00000-0  10565-3 0  9997,2 55429  70.0005  71.8983 0002850 269.4522  90.6310 14.98336498 86761,6950.173,96.107,574.019,570.057,0.0
55429.0,STARLINK-5645,PAYLOAD,2024-08-20 17:26:32,14.98335558,0.0002905,70.0004,71.562,267.8858,92.1968,7.0402e-05,7.47e-06,0.0,0 STARLINK-5645,1 55429U 23014AQ  24233.72676152  .00000747  00000-0  70402-4 0  9990,2 55429  70.0004  71.5620 0002905 267.8858  92.1968 14.98335558 85840,6950.176,96.107,574.06,570.022,0.0
55429.0,STARLINK-5645,PAYLOAD,2024-08-21 14:16:17,14.98330145,0.0002909,69.9993,69.3731,269.1329,90.9497,0.00011754,1.31e-05,0.0,0 STARLINK-5645,1 55429U 23014AQ  24234.59464474  .00001310  00000-0  11754-3 0  9999,2 55429  69.9993  69.3731 0002909 269.1329  90.9497 14.98330145 86913,6950.192,96.107,574.079,570.036,0.0
55429.0,STARLINK-5645,PAYLOAD,2024-08-21 17:28:33,14.98328279,0.0002956,69.9992,69.037,265.7858,94.2963,8.5923e-05,9.32e-06,0.0,0 STARLINK-5645,1 55429U 23014AQ  24234.72816622  .00000932  00000-0  85923-4 0  9999,2 55429  69.9992  69.0370 0002956 265.7858  94.2963 14.98328279 85996,6950.198,96.107,574.118,570.009,0.0
55429.0,STARLINK-5645,PAYLOAD,2024-08-21 20:40:49,14.98328214,0.0002963,69.9993,68.7004,266.2864,93.7956,7.732e-05,8.3e-06,0.0,0 STARLINK-5645,1 55429U 23014AQ  24234.86168644  .00000830  00000-0  77320-4 0  9997,2 55429  69.9993  68.7004 0002963 266.2864  93.7956 14.98328214 86950,6950.198,96.107,574.123,570.004,0.0
